

*******************************************************************************
Ephemeris / WWW_USER Fri Feb  3 05:07:03 2023 Pasadena, USA      / Horizons    
*******************************************************************************
Target body name: Jupiter (599)                   {source: jup365_merged}
Center body name: Earth (399)                     {source: DE441}
Center-site name: GEOCENTRIC
*******************************************************************************
Start time      : A.D. 2023-Jan-01 00:00:00.0000 UT      
Stop  time      : A.D. 2030-Dec-31 00:00:00.0000 UT      
Step-size       : 1440 minutes
*******************************************************************************
Target pole/equ : IAU_JUPITER                     {West-longitude positive}
Target radii    : 71492.0 x 71492.0 x 66854.0 km  {Equator, meridian, pole}    
Center geodetic : 0.00000000,0.00000000,0.0000000 {E-lon(deg),Lat(deg),Alt(km)}
Center cylindric: 0.00000000,0.00000000,0.0000000 {E-lon(deg),Dxy(km),Dz(km)}
Center pole/equ : ITRF93                          {East-longitude positive}
Center radii    : 6378.1 x 6378.1 x 6356.8 km     {Equator, meridian, pole}    
Target primary  : Sun (R_eq= 696000.000) km
Vis. interferer : MOON (R_eq= 1737.400) km        {source: DE441}
Rel. light bend : Sun                             {source: jup365_merged}
Rel. lght bnd GM: 1.3271E+11 km^3/s^2                                          
Atmos refraction: NO (AIRLESS)
RA format       : HMS
Time format     : JD  
EOP file        : eop.230201.p230427                                           
EOP coverage    : DATA-BASED 1962-JAN-20 TO 2023-FEB-01. PREDICTS-> 2023-APR-26
Units conversion: 1 au= 149597870.700 km, c= 299792.458 km/s, 1 day= 86400.0 s 
Table cut-offs 1: Elevation (-90.0deg=NO ),Airmass (>38.000=NO), Daylight (NO )
Table cut-offs 2: Solar elongation (  0.0,180.0=NO ),Local Hour Angle( 0.0=NO )
Table cut-offs 3: RA/DEC angular rate (     0.0=NO )                           
Table format    : Comma Separated Values (spreadsheet)
************************************************************************************************************************************************************************************
Date_________JDUT, , , R.A._(ICRF), DEC__(ICRF),    APmag,  S-brt,             delta,     deldot,     S-O-T,/r,     S-T-O,  Sky_motion, Sky_mot_PA, RelVel-ANG, Lun_Sky_Brt  sky_SNR
************************************************************************************************************************************************************************************
$$SOE
2462665.500000000, , , 15 06 47.33, -16 21 00.0,   -2.449,  5.490,  4.50700765811870, 14.0411288,  147.1880,/T,    5.8557,   0.2249309,  283.46078,  48.885478,        n.a.     n.a.
2462666.500000000, , , 15 06 25.74, -16 19 45.0,   -2.444,  5.491,  4.51523596358701, 14.4517248,  146.1447,/T,    6.0217,   0.2191585,  283.39883,  50.383852,        n.a.     n.a.
2462667.500000000, , , 15 06 04.71, -16 18 32.4,   -2.439,  5.492,  4.52370087816265, 14.8599387,  145.1040,/T,    6.1855,   0.2132717,  283.32979,  51.873418,        n.a.     n.a.
2462668.500000000, , , 15 05 44.25, -16 17 22.1,   -2.434,  5.493,  4.53239886434308, 15.2602196,  144.0658,/T,    6.3468,   0.2073086,  283.25509,  53.338977,        n.a.     n.a.
2462669.500000000, , , 15 05 24.37, -16 16 14.2,   -2.428,  5.494,  4.54132730815615, 15.6559186,  143.0302,/T,    6.5057,   0.2011950,  283.17193,  54.797192,        n.a.     n.a.
2462670.500000000, , , 15 05 05.09, -16 15 08.7,   -2.423,  5.495,  4.55048209475192, 16.0465884,  141.9971,/T,    6.6622,   0.1950408,  283.08150,  56.232990,        n.a.     n.a.
2462671.500000000, , , 15 04 46.41, -16 14 05.8,   -2.417,  5.495,  4.55986144790868, 16.4310633,  140.9667,/T,    6.8162,   0.1887109,  282.98098,  57.663253,        n.a.     n.a.
2462672.500000000, , , 15 04 28.34, -16 13 05.5,   -2.412,  5.496,  4.56946106060832, 16.8107674,  139.9388,/T,    6.9677,   0.1823025,  282.87060,  59.077711,        n.a.     n.a.
2462673.500000000, , , 15 04 10.90, -16 12 07.7,   -2.406,  5.497,  4.57927729769005, 17.1805220,  138.9135,/T,    7.1166,   0.1757884,  282.75030,  60.473086,        n.a.     n.a.
2462674.500000000, , , 15 03 54.08, -16 11 12.6,   -2.400,  5.498,  4.58930631442048, 17.5476681,  137.8909,/T,    7.2629,   0.1691911,  282.61686,  61.857755,        n.a.     n.a.
2462675.500000000, , , 15 03 37.91, -16 10 20.2,   -2.394,  5.499,  4.59954458611813, 17.9059728,  136.8710,/T,    7.4065,   0.1625201,  282.47099,  63.222289,        n.a.     n.a.
2462676.500000000, , , 15 03 22.38, -16 09 30.5,   -2.388,  5.500,  4.60998894840459, 18.2595498,  135.8538,/T,    7.5475,   0.1557225,  282.30787,  64.580462,        n.a.     n.a.
2462677.500000000, , , 15 03 07.51, -16 08 43.6,   -2.382,  5.501,  4.62063481883309, 18.6062327,  134.8394,/T,    7.6857,   0.1489017,  282.12875,  65.915464,        n.a.     n.a.
2462678.500000000, , , 15 02 53.30, -16 07 59.5,   -2.375,  5.502,  4.63147985167904, 18.9466048,  133.8277,/T,    7.8212,   0.1419277,  281.92673,  67.247370,        n.a.     n.a.
2462679.500000000, , , 15 02 39.77, -16 07 18.3,   -2.369,  5.503,  4.64251911244154, 19.2806061,  132.8189,/T,    7.9539,   0.1349061,  281.70151,  68.561681,        n.a.     n.a.
2462680.500000000, , , 15 02 26.92, -16 06 39.9,   -2.363,  5.504,  4.65374853475356, 19.6038336,  131.8129,/T,    8.0837,   0.1277911,  281.44903,  69.861541,        n.a.     n.a.
2462681.500000000, , , 15 02 14.76, -16 06 04.4,   -2.356,  5.505,  4.66516329581640, 19.9231493,  130.8097,/T,    8.2107,   0.1206390,  281.16338,  71.146407,        n.a.     n.a.
2462682.500000000, , , 15 02 03.28, -16 05 31.8,   -2.350,  5.506,  4.67675949369594, 20.2323609,  129.8095,/T,    8.3348,   0.1134316,  280.84011,  72.414016,        n.a.     n.a.
2462683.500000000, , , 15 01 52.51, -16 05 02.3,   -2.343,  5.507,  4.68853313938588, 20.5362923,  128.8122,/T,    8.4560,   0.1061420,  280.46680,  73.673278,        n.a.     n.a.
2462684.500000000, , , 15 01 42.44, -16 04 35.6,   -2.337,  5.508,  4.70047913897940, 20.8314105,  127.8179,/T,    8.5743,   0.0988596,  280.03949,  74.909185,        n.a.     n.a.
2462685.500000000, , , 15 01 33.07, -16 04 12.0,   -2.330,  5.509,  4.71259447359074, 21.1201300,  126.8265,/T,    8.6897,   0.0914678,  279.53464,  76.141297,        n.a.     n.a.
2462686.500000000, , , 15 01 24.42, -16 03 51.4,   -2.323,  5.510,  4.72487368261188, 21.4008866,  125.8382,/T,    8.8021,   0.0840737,  278.94064,  77.353743,        n.a.     n.a.
2462687.500000000, , , 15 01 16.49, -16 03 33.9,   -2.316,  5.511,  4.73731231231013, 21.6704196,  124.8529,/T,    8.9115,   0.0766202,  278.22713,  78.554021,        n.a.     n.a.
2462688.500000000, , , 15 01 09.27, -16 03 19.3,   -2.310,  5.512,  4.74990471410485, 21.9347655,  123.8707,/T,    9.0179,   0.0691959,  277.36054,  79.733437,        n.a.     n.a.
2462689.500000000, , , 15 01 02.78, -16 03 07.9,   -2.303,  5.512,  4.76264678758222, 22.1883531,  122.8915,/T,    9.1213,   0.0617619,  276.28418,  80.895780,        n.a.     n.a.
2462690.500000000, , , 15 00 57.01, -16 02 59.5,   -2.296,  5.513,  4.77553397848692, 22.4365345,  121.9155,/T,    9.2217,   0.0543265,  274.90548,  82.043023,        n.a.     n.a.
2462691.500000000, , , 15 00 51.97, -16 02 54.1,   -2.289,  5.514,  4.78856114306658, 22.6749079,  120.9424,/T,    9.3191,   0.0469692,  273.10490,  83.162800,        n.a.     n.a.
2462692.500000000, , , 15 00 47.65, -16 02 51.9,   -2.282,  5.515,  4.80172505647181, 22.9078216,  119.9725,/T,    9.4134,   0.0396155,  270.61149,  84.268084,        n.a.     n.a.
2462693.500000000, , , 15 00 44.05, -16 02 52.7,   -2.275,  5.516,  4.81502050136985, 23.1324842,  119.0056,/T,    9.5048,   0.0324013,  267.01391,  85.339284,        n.a.     n.a.
2462694.500000000, , , 15 00 41.19, -16 02 56.5,   -2.268,  5.516,  4.82844344065424, 23.3472327,  118.0418,/T,    9.5931,   0.0253512,  261.36244,  86.373716,        n.a.     n.a.
2462695.500000000, , , 15 00 39.04, -16 03 03.5,   -2.261,  5.517,  4.84198842196382, 23.5570717,  117.0810,/T,    9.6785,   0.0187851,  251.66330,  87.327778,        n.a.     n.a.
2462696.500000000, , , 15 00 37.62, -16 03 13.4,   -2.254,  5.518,  4.85565216788259, 23.7575638,  116.1231,/T,    9.7608,   0.0132784,  232.88575,  88.121081,        n.a.     n.a.
2462697.500000000, , , 15 00 36.92, -16 03 26.5,   -2.247,  5.519,  4.86943061239505, 23.9541243,  115.1683,/T,    9.8401,   0.0106557,  198.34702,  88.500134,        n.a.     n.a.
2462698.500000000, , , 15 00 36.94, -16 03 42.5,   -2.240,  5.519,  4.88331958716311, 24.1416136,  114.2163,/T,    9.9164,   0.0127896,  162.53031,  88.208839,        n.a.     n.a.
2462699.500000000, , , 15 00 37.69, -16 04 01.6,   -2.233,  5.520,  4.89731639198156, 24.3256471,  113.2672,/T,    9.9897,   0.0180830,  142.24799,  87.480258,        n.a.     n.a.
2462700.500000000, , , 15 00 39.15, -16 04 23.8,   -2.226,  5.521,  4.91141665191311, 24.5017986,  112.3210,/T,   10.0600,   0.0245407,  131.87867,  86.597054,        n.a.     n.a.
2462701.500000000, , , 15 00 41.33, -16 04 48.9,   -2.219,  5.521,  4.92561688465054, 24.6694808,  111.3776,/T,   10.1273,   0.0315027,  125.90632,  85.652048,        n.a.     n.a.
2462702.500000000, , , 15 00 44.23, -16 05 17.1,   -2.212,  5.522,  4.93991171445057, 24.8317007,  110.4371,/T,   10.1917,   0.0386135,  122.14526,  84.695077,        n.a.     n.a.
2462703.500000000, , , 15 00 47.86, -16 05 48.3,   -2.205,  5.522,  4.95429808695906, 24.9849462,  109.4993,/T,   10.2530,   0.0458575,  119.54819,  83.727448,        n.a.     n.a.
2462704.500000000, , , 15 00 52.20, -16 06 22.5,   -2.199,  5.523,  4.96877158353624, 25.1338457,  108.5643,/T,   10.3114,   0.0531469,  117.66459,  82.761995,        n.a.     n.a.
